AETHER-2                
1 58299U 23174AV  26068.71793741  .00008341  00000+0  26166-3 0  9990
2 58299  97.3931 151.9008 0008630 139.5247 220.6639 15.33264165129982
STARLINK-35485          
1 66251U 25245T   26068.85730775  .00042204  00000+0  14295-2 0  9996
2 66251  53.1586 283.0093 0001090 152.8442 207.2616 15.30187722 21060
